{"type":"Feature","properties":{},"geometry":{"type":"Polygon","coordinates":[[[6.3025341,46.3034879],[6.3087878,46.3052358],[6.3116623,46.3032839],[6.3091109,46.3020751],[6.3099681,46.3009722],[6.310212,46.300688],[6.3109649,46.3003606],[6.3108743,46.3001535],[6.3101911,46.2996959],[6.3091873,46.2987659],[6.308058,46.297663],[6.3072772,46.2968779],[6.3067056,46.2965408],[6.3064198,46.296483],[6.3061619,46.2966516],[6.30566,46.2975859],[6.3055484,46.2977786],[6.3041752,46.2988093],[6.3026485,46.2998496],[6.3023766,46.3000373],[6.3021605,46.3002878],[6.3039869,46.3007261],[6.3039869,46.3007212],[6.3030437,46.3025136],[6.3025341,46.3034879]]]}}